DUPLEX                  
1 66906U 98067XS  26088.93397776  .00036667  00000+0  49191-3 0  9996
2 66906  51.6302 328.0933 0003065 205.1943 154.8900 15.57577255 18287
ISS OBJECT XT           
1 66907U 98067XT  26089.35850332  .00264942  00000+0  15408-2 0  9998
2 66907  51.6238 319.6397 0006262 214.5575 145.5019 15.77137224 18438
ISS OBJECT XU           
1 66908U 98067XU  26089.03767943  .00274217  00000+0  15861-2 0  9998
2 66908  51.6244 321.2426 0006488 211.6504 148.4107 15.77231369 18387
SILVERSAT               
1 66909U 98067XV  26089.61870548  .00413760  00000+0  17865-2 0  9993
2 66909  51.6205 316.8575 0007582 222.6544 137.3871 15.83247741 18497
ISS OBJECT XW           
1 66910U 98067XW  26089.36709100  .00225580  00000+0  14122-2 0  9996
2 66910  51.6226 319.6895 0006604 211.3054 148.7553 15.75574408 18434
ISS OBJECT XX           
1 66911U 98067XX  26089.61540050  .00638669  17112-3  20123-2 0  9992
2 66911  51.6173 315.2966 0009590 227.6877 132.3317 15.90683797 18501
ISS OBJECT XY           
1 66912U 98067XY  26089.00591402  .00135548  00000+0  11880-2 0  9995
2 66912  51.6265 324.0610 0004509 207.7928 152.2828 15.67909669 18331
KNACKSAT-2              
1 67683U 98067XZ  26089.38778828  .00049653  00000+0  76650-3 0  9999
2 67683  51.6325 328.8747 0010124 261.2248  98.7596 15.53571825  8000
CORAL                   
1 67684U 98067YA  26089.37987226  .00106857  00000+0  13867-2 0  9993
2 67684  51.6302 328.0728 0012880 250.8406 109.1193 15.57905206  8017
GXIBA-1                 
1 67685U 98067YB  26089.05572195  .00057636  00000+0  87009-3 0  9994
2 67685  51.6323 330.4074 0012014 256.8362 103.1288 15.54098207  7950
UITMSAT-2               
1 67686U 98067YC  26089.04035350  .00070850  00000+0  10299-2 0  9990
2 67686  51.6316 330.3073 0009167 228.7087 131.3115 15.55077953  7956
HMU-SAT2                
1 67687U 98067YD  26089.38241754  .00054544  00000+0  83211-3 0  9992
2 67687  51.6326 328.8427 0008629 233.2686 126.7513 15.53872979  7927
LEOPARD                 
1 67688U 98067YE  26089.36876470  .00062747  00000+0  92783-3 0  9998
2 67688  51.6321 328.7513 0008831 230.5203 129.5007 15.54667702  7924
CREW DRAGON 12          
1 67796U 26031A   26089.35874861  .00011753  00000+0  22376-3 0  9993
2 67796  51.6343 330.1789 0006212 250.3608 109.6710 15.48652900559491
PROGRESS-MS 33          
1 68319U 26058A   26089.35874861  .00011753  00000+0  22376-3 0  9994
2 68319  51.6343 330.1789 0006212 250.3608 109.6710 15.48652900   708
